STARLINK-1029
1 24734C 19074X   21325.13608669 -.00018419  00000-0 -12340-2 0  3255
2 24734  53.0538 312.6028 0001631  58.9676  40.7486 15.06419183    10
